{"type": "FeatureCollection", "features": [ {"type": "Feature", "properties": {"norad_id": 66326, "name": "STARLINK-35479", "group": "last-30-days", "lat": -29.170502637925498, "lon": -109.78159513292394, "alt_km": 416.5167176400282, "timestamp": "2025-12-04T09:47:36.300443+00:00", "meta": {"OBJECT_NAME": "STARLINK-35479", "OBJECT_ID": "2025-253H", "EPOCH": "2025-12-03T15:49:14.832480", "MEAN_MOTION": 15.50617936, "ECCENTRICITY": 0.00011664, "INCLINATION": 43.0004, "RA_OF_ASC_NODE": 37.8005, "ARG_OF_PERICENTER": 257.339, "MEAN_ANOMALY": 102.734, "EPHEMERIS_TYPE": 0, "CLASSIFICATION_TYPE": "U", "NORAD_CAT_ID": 66326, "ELEMENT_SET_NO": 999, "REV_AT_EPOCH": 552, "BSTAR": 0.0016625411, "MEAN_MOTION_DOT": 0.00098564, "MEAN_MOTION_DDOT": 0}, "tle": {"line1": "1 66326U 25253H   25337.65919945  .00098564  00000+0  16625-2 0  9991", "line2": "2 66326  43.0004  37.8005 0001166 257.3390 102.7340 15.50617936  5524"}}, "geometry": {"type": "Point", "coordinates": [-109.78159513292394, -29.170502637925498]}}, {"type": "Feature", "properties": {"norad_id": 66327, "name": "STARLINK-35507", "group": "last-30-days", "lat": -22.619932267050082, "lon": -119.99019004638326, "alt_km": 417.10126912870874, "timestamp": "2025-12-04T09:47:36.300457+00:00", "meta": {"OBJECT_NAME": "STARLINK-35507", "OBJECT_ID": "2025-253J", "EPOCH": "2025-12-03T12:46:42.428928", "MEAN_MOTION": 15.50619877, "ECCENTRICITY": 0.00014974, "INCLINATION": 43.0002, "RA_OF_ASC_NODE": 38.5738, "ARG_OF_PERICENTER": 351.1702, "MEAN_ANOMALY": 8.9131, "EPHEMERIS_TYPE": 0, "CLASSIFICATION_TYPE": "U", "NORAD_CAT_ID": 66327, "ELEMENT_SET_NO": 999, "REV_AT_EPOCH": 550, "BSTAR": 0.0024915595, "MEAN_MOTION_DOT": 0.00148855, "MEAN_MOTION_DDOT": 0}, "tle": {"line1": "1 66327U 25253J   25337.53243552  .00148855  00000+0  24916-2 0  9994", "line2": "2 66327  43.0002  38.5738 0001497 351.1702   8.9131 15.50619877  5500"}}, "geometry": {"type": "Point", "coordinates": [-119.99019004638326, -22.619932267050082]}}, {"type": "Feature", "properties": {"norad_id": 66328, "name": "STARLINK-35460", "group": "last-30-days", "lat": 6.3422731777433725, "lon": -153.29820084293132, "alt_km": 443.29830261976986, "timestamp": "2025-12-04T09:47:36.300468+00:00", "meta": {"OBJECT_NAME": "STARLINK-35460", "OBJECT_ID": "2025-253K", "EPOCH": "2025-12-03T22:00:03.000096", "MEAN_MOTION": 15.40708749, "ECCENTRICITY": 0.00016231, "INCLINATION": 43.0006, "RA_OF_ASC_NODE": 36.384, "ARG_OF_PERICENTER": 265.0223, "MEAN_ANOMALY": 57.0753, "EPHEMERIS_TYPE": 0, "CLASSIFICATION_TYPE": "U", "NORAD_CAT_ID": 66328, "ELEMENT_SET_NO": 999, "REV_AT_EPOCH": 560, "BSTAR": -0.0018371789, "MEAN_MOTION_DOT": -0.00076307, "MEAN_MOTION_DDOT": 0}, "tle": {"line1": "1 66328U 25253K   25337.91670139 -.00076307  00000+0 -18372-2 0  9995", "line2": "2 66328  43.0006  36.3840 0001623 265.0223  57.0753 15.40708749  5609"}}, "geometry": {"type": "Point", "coordinates": [-153.29820084293132, 6.3422731777433725]}}, {"type": "Feature", "properties": {"norad_id": 66329, "name": "STARLINK-35505", "group": "last-30-days", "lat": -21.501522454856943, "lon": -121.538077968243, "alt_km": 415.5629713381204, "timestamp": "2025-12-04T09:47:36.300481+00:00", "meta": {"OBJECT_NAME": "STARLINK-35505", "OBJECT_ID": "2025-253L", "EPOCH": "2025-12-03T12:47:11.075712", "MEAN_MOTION": 15.50665124, "ECCENTRICITY": 0.00023019, "INCLINATION": 43, "RA_OF_ASC_NODE": 38.5759, "ARG_OF_PERICENTER": 270.1873, "MEAN_ANOMALY": 89.8723, "EPHEMERIS_TYPE": 0, "CLASSIFICATION_TYPE": "U", "NORAD_CAT_ID": 66329, "ELEMENT_SET_NO": 999, "REV_AT_EPOCH": 550, "BSTAR": 0.0020206657, "MEAN_MOTION_DOT": 0.00120414, "MEAN_MOTION_DDOT": 0}, "tle": {"line1": "1 66329U 25253L   25337.53276708  .00120414  00000+0  20207-2 0  9995", "line2": "2 66329  43.0000  38.5759 0002301 270.1873  89.8723 15.50665124  5508"}}, "geometry": {"type": "Point", "coordinates": [-121.538077968243, -21.501522454856943]}}, {"type": "Feature", "properties": {"norad_id": 66330, "name": "STARLINK-35512", "group": "last-30-days", "lat": 42.68983485680328, "lon": 131.8968730513323, "alt_km": 438.45118565068606, "timestamp": "2025-12-04T09:47:36.300493+00:00", "meta": {"OBJECT_NAME": "STARLINK-35512", "OBJECT_ID": "2025-253M", "EPOCH": "2025-12-03T22:00:03.000096", "MEAN_MOTION": 15.40737673, "ECCENTRICITY": 0.00011126, "INCLINATION": 43.0009, "RA_OF_ASC_NODE": 36.5672, "ARG_OF_PERICENTER": 245.0251, "MEAN_ANOMALY": 2.5131, "EPHEMERIS_TYPE": 0, "CLASSIFICATION_TYPE": "U", "NORAD_CAT_ID": 66330, "ELEMENT_SET_NO": 999, "REV_AT_EPOCH": 551, "BSTAR": -0.0049878066, "MEAN_MOTION_DOT": -0.00203449, "MEAN_MOTION_DDOT": 0}, "tle": {"line1": "1 66330U 25253M   25337.91670139 -.00203449  00000+0 -49878-2 0  9992", "line2": "2 66330  43.0009  36.5672 0001112 245.0251   2.5131 15.40737673  5515"}}, "geometry": {"type": "Point", "coordinates": [131.8968730513323, 42.68983485680328]}}, {"type": "Feature", "properties": {"norad_id": 66331, "name": "STARLINK-35257", "group": "last-30-days", "lat": -34.97031190497002, "lon": -97.96759222755048, "alt_km": 416.7374062447525, "timestamp": "2025-12-04T09:47:36.300504+00:00", "meta": {"OBJECT_NAME": "STARLINK-35257", "OBJECT_ID": "2025-253N", "EPOCH": "2025-12-03T12:40:46.235424", "MEAN_MOTION": 15.50612497, "ECCENTRICITY": 0.00017622, "INCLINATION": 42.9995, "RA_OF_ASC_NODE": 38.5379, "ARG_OF_PERICENTER": 289.6299, "MEAN_ANOMALY": 70.4371, "EPHEMERIS_TYPE": 0, "CLASSIFICATION_TYPE": "U", "NORAD_CAT_ID": 66331, "ELEMENT_SET_NO": 999, "REV_AT_EPOCH": 550, "BSTAR": 0.0018759457, "MEAN_MOTION_DOT": 0.00111424, "MEAN_MOTION_DDOT": 0}, "tle": {"line1": "1 66331U 25253N   25337.52831291  .00111424  00000+0  18759-2 0  9991", "line2": "2 66331  42.9995  38.5379 0001762 289.6299  70.4371 15.50612497  5507"}}, "geometry": {"type": "Point", "coordinates": [-97.96759222755048, -34.97031190497002]}}, {"type": "Feature", "properties": {"norad_id": 66332, "name": "STARLINK-35322", "group": "last-30-days", "lat": -5.298242912760499, "lon": -140.77713818779114, "alt_km": 438.21547693276443, "timestamp": "2025-12-04T09:47:36.300517+00:00", "meta": {"OBJECT_NAME": "STARLINK-35322", "OBJECT_ID": "2025-253P", "EPOCH": "2025-12-03T15:54:04.667328", "MEAN_MOTION": 15.43882577, "ECCENTRICITY": 0.0001814, "INCLINATION": 42.9998, "RA_OF_ASC_NODE": 37.8272, "ARG_OF_PERICENTER": 5.7146, "MEAN_ANOMALY": 354.3732, "EPHEMERIS_TYPE": 0, "CLASSIFICATION_TYPE": "U", "NORAD_CAT_ID": 66332, "ELEMENT_SET_NO": 999, "REV_AT_EPOCH": 552, "BSTAR": -0.0089578, "MEAN_MOTION_DOT": -0.00395993, "MEAN_MOTION_DDOT": 0}, "tle": {"line1": "1 66332U 25253P   25337.66255402 -.00395993  00000+0 -89578-2 0  9995", "line2": "2 66332  42.9998  37.8272 0001814   5.7146 354.3732 15.43882577  5528"}}, "geometry": {"type": "Point", "coordinates": [-140.77713818779114, -5.298242912760499]}}, {"type": "Feature", "properties": {"norad_id": 66333, "name": "STARLINK-35400", "group": "last-30-days", "lat": -34.13777958764771, "lon": -99.92850895720302, "alt_km": 415.8210607750616, "timestamp": "2025-12-04T09:47:36.300528+00:00", "meta": {"OBJECT_NAME": "STARLINK-35400", "OBJECT_ID": "2025-253Q", "EPOCH": "2025-12-03T12:41:15.457632", "MEAN_MOTION": 15.50633816, "ECCENTRICITY": 0.0002479, "INCLINATION": 43.0028, "RA_OF_ASC_NODE": 38.5379, "ARG_OF_PERICENTER": 261.0989, "MEAN_ANOMALY": 98.959, "EPHEMERIS_TYPE": 0, "CLASSIFICATION_TYPE": "U", "NORAD_CAT_ID": 66333, "ELEMENT_SET_NO": 999, "REV_AT_EPOCH": 550, "BSTAR": 0.0019355, "MEAN_MOTION_DOT": 0.00115116, "MEAN_MOTION_DDOT": 0}, "tle": {"line1": "1 66333U 25253Q   25337.52865113  .00115116  00000+0  19355-2 0  9998", "line2": "2 66333  43.0028  38.5379 0002479 261.0989  98.9590 15.50633816  5500"}}, "geometry": {"type": "Point", "coordinates": [-99.92850895720302, -34.13777958764771]}}, {"type": "Feature", "properties": {"norad_id": 66334, "name": "STARLINK-35407", "group": "last-30-days", "lat": 29.60581090687377, "lon": 176.07158954435764, "alt_km": 439.26773520481765, "timestamp": "2025-12-04T09:47:36.300539+00:00", "meta": {"OBJECT_NAME": "STARLINK-35407", "OBJECT_ID": "2025-253R", "EPOCH": "2025-12-04T04:32:58.300224", "MEAN_MOTION": 15.40796899, "ECCENTRICITY": 6.11e-05, "INCLINATION": 42.9992, "RA_OF_ASC_NODE": 34.9051, "ARG_OF_PERICENTER": 285.6311, "MEAN_ANOMALY": 74.4478, "EPHEMERIS_TYPE": 0, "CLASSIFICATION_TYPE": "U", "NORAD_CAT_ID": 66334, "ELEMENT_SET_NO": 999, "REV_AT_EPOCH": 560, "BSTAR": 0.0029412, "MEAN_MOTION_DOT": 0.00124991, "MEAN_MOTION_DDOT": 0}, "tle": {"line1": "1 66334U 25253R   25338.18956366  .00124991  00000+0  29412-2 0  9999", "line2": "2 66334  42.9992  34.9051 0000611 285.6311  74.4478 15.40796899  5608"}}, "geometry": {"type": "Point", "coordinates": [176.07158954435764, 29.60581090687377]}}, {"type": "Feature", "properties": {"norad_id": 66335, "name": "STARLINK-35417", "group": "last-30-days", "lat": 35.623806204280605, "lon": 84.08286884141586, "alt_km": 439.47356033246706, "timestamp": "2025-12-04T09:47:36.300550+00:00", "meta": {"OBJECT_NAME": "STARLINK-35417", "OBJECT_ID": "2025-253S", "EPOCH": "2025-12-04T00:00:02.000160", "MEAN_MOTION": 15.40725454, "ECCENTRICITY": 0.0001523, "INCLINATION": 43.0009, "RA_OF_ASC_NODE": 36.1763, "ARG_OF_PERICENTER": 254.3794, "MEAN_ANOMALY": 58.4875, "EPHEMERIS_TYPE": 0, "CLASSIFICATION_TYPE": "U", "NORAD_CAT_ID": 66335, "ELEMENT_SET_NO": 999, "REV_AT_EPOCH": 552, "BSTAR": -0.0019018, "MEAN_MOTION_DOT": -0.00078998, "MEAN_MOTION_DDOT": 0}, "tle": {"line1": "1 66335U 25253S   25338.00002315 -.00078998  00000+0 -19018-2 0  9995", "line2": "2 66335  43.0009  36.1763 0001523 254.3794  58.4875 15.40725454  5528"}}, "geometry": {"type": "Point", "coordinates": [84.08286884141586, 35.623806204280605]}}]}